ONEWEB-0020             
1 45133U 20008C   23319.27433986  .00000708  00000+0  19917-2 0  9999
2 45133  87.8924 223.9124 0001608  79.8429 280.2879 13.10373398184594
ONEWEB-0021             
1 45134U 20008D   23319.28896875  .00003318  00000+0  94663-2 0  9992
2 45134  87.8926 223.9150 0001465  67.4617 292.6665 13.10360421184907
ONEWEB-0022             
1 45135U 20008E   23319.23716744 -.00000463  00000+0 -13624-2 0  9992
2 45135  87.8930 223.9440 0001602  91.1445 268.9866 13.10388649184597
ONEWEB-0023             
1 45136U 20008F   23319.30194295 -.00000446  00000+0 -13146-2 0  9992
2 45136  87.8927 223.9054 0002182  75.8641 284.2729 13.10369434184338
ONEWEB-0024             
1 45137U 20008G   23319.27271670  .00000728  00000+0  20483-2 0  9995
2 45137  87.8917 223.9205 0001506  67.7815 292.3472 13.10374828184493
ONEWEB-0025             
1 45138U 20008H   23319.29057518  .00000044  00000+0  89828-4 0  9992
2 45138  87.8914 223.9164 0001769  64.7198 295.4113 13.10372364184823
ONEWEB-0026             
1 45139U 20008J   23319.22205906 -.00108005  00000+0 -30963+0 0  9991
2 45139  87.9002 208.8100 0001405  80.6203 279.5084 13.11131898187252
ONEWEB-0028             
1 45140U 20008K   23319.17754622 -.00000144  00000+0 -44232-3 0  9994
2 45140  87.8998 208.8640 0002106  57.0417 303.0914 13.11413330184762
